STARLINK-31374          
1 59404U 24064G   26068.19865622 -.00002902  00000+0 -96014-4 0  9997
2 59404  43.0059   7.8835 0000841 294.8221  65.2543 15.27567910109487
COSMOS 2576             
1 59773U 24092A   26068.82603826  .00015211  00000+0  56283-3 0  9991
2 59773  97.4253 186.0053 0005946 159.7731 200.3745 15.27760963101271
