[{"OBJECT_NAME":"STARLINK-31374","OBJECT_ID":"2024-064G","EPOCH":"2026-03-09T04:46:03.897408","MEAN_MOTION":15.2756791,"ECCENTRICITY":8.418e-5,"INCLINATION":43.0059,"RA_OF_ASC_NODE":7.8835,"ARG_OF_PERICENTER":294.8221,"MEAN_ANOMALY":65.2543,"EPHEMERIS_TYPE":0,"CLASSIFICATION_TYPE":"U","NORAD_CAT_ID":59404,"ELEMENT_SET_NO":999,"REV_AT_EPOCH":10948,"BSTAR":-9.6014487e-5,"MEAN_MOTION_DOT":-2.902e-5,"MEAN_MOTION_DDOT":0},{"OBJECT_NAME":"COSMOS 2576","OBJECT_ID":"2024-092A","EPOCH":"2026-03-09T19:49:29.705664","MEAN_MOTION":15.27760963,"ECCENTRICITY":0.0005946,"INCLINATION":97.4253,"RA_OF_ASC_NODE":186.0053,"ARG_OF_PERICENTER":159.7731,"MEAN_ANOMALY":200.3745,"EPHEMERIS_TYPE":0,"CLASSIFICATION_TYPE":"U","NORAD_CAT_ID":59773,"ELEMENT_SET_NO":999,"REV_AT_EPOCH":10127,"BSTAR":0.00056283,"MEAN_MOTION_DOT":0.00015211,"MEAN_MOTION_DDOT":0}]
